43P/Wolf-Harrington,e,9.3351,244.0936,224.1182,4.317449,0.1098660,0.43544042,221.3782,02/22.0/2022,2000,g  8.0,6.0
# From MPEC 2021-TD0
44P/Reinmuth,e,5.8969,286.4774,58.0954,3.691760,0.1389485,0.42774048,351.6184,02/22.0/2022,2000,g  8.3,6.0
# From MPC103849
45P/Honda-Mrkos-Pajdusakova,e,4.3227,87.7041,327.9056,3.052976,0.1847647,0.81749253,348.4434,02/22.0/2022,2000,g 13.5,8.0
# From MPEC 2021-O56
46P/Wirtanen,e,11.7459,82.1572,356.3321,3.091859,0.1812903,0.65843615,211.7392,02/22.0/2022,2000,g 14.0,6.0
# From MPEC 2021-S45
47P/Ashbrook-Jackson,e,13.0410,356.9211,357.6759,4.123411,0.1177116,0.31855814,201.9258,02/22.0/2022,2000,g 12.5,4.0
# From MPEC 2021-F20
48P/Johnson,e,12.2040,110.1159,216.6906,3.501057,0.1504545,0.42736101,193.9173,02/22.0/2022,2000,g 12.4,4.0
# From MPEC 2021-F20
49P/Arend-Rigaux,e,19.0470,118.7954,332.9296,3.569711,0.1461351,0.59829110,192.7604,02/22.0/2022,2000,g 13.4,4.0
# From MPEC 2015-S97
50P/Arend,e,19.1006,355.1774,49.3174,4.088241,0.1192338,0.52927976,263.2928,02/22.0/2022,2000,g  9.5,6.0
# From NK 3014
51P-A/Harrington,e,5.4261,83.6755,269.2682,3.707861,0.1380444,0.54351906,329.0857,02/22.0/2022,2000,g 10.0,8.0
# From NK 3013
51P-D/Harrington,e,5.4268,83.6604,269.3065,3.706892,0.1380986,0.54345040,329.3710,02/22.0/2022,2000,g 16.0,8.0
# From MPEC 2022-CN4
52P/Harrington-Abell,e,10.2316,336.8379,139.5904,3.864930,0.1297154,0.54017047,18.1357,02/22.0/2022,2000,g 13.5,6.0
# From MPC100283
53P/Van Biesbroeck,e,6.6095,148.8112,134.5019,5.429293,0.0779093,0.55136721,165.4493,02/22.0/2022,2000,g  7.7,4.8
# From MPC 89011
54P/de Vico-Swift-NEAT,e,6.0646,358.8170,1.8135,3.790506,0.1335544,0.42626188,236.5109,02/22.0/2022,2000,g  9.0,4.0
# From MPC 31070
55P/Tempel-Tuttle,e,162.4622,235.4112,172.4875,10.35637,0.0295728,0.90581440,260.2423,02/22.0/2022,2000,g  9.0,4.0
# From MPC101100
56P/Slaughter-Burnham,e,8.1612,345.9952,43.9887,5.068047,0.0863859,0.50797815,176.4284,02/22.0/2022,2000,g  8.5,6.0
# From MPEC 2022-C56
57P/duToit-Neujmin-Delporte,e,2.8515,188.7675,115.2469,3.447301,0.1539875,0.50107178,19.6514,02/22.0/2022,2000,g 12.5,6.0
# From MPEC 2021-O56
58P/Jackson-Neujmin,e,13.1086,159.0747,200.5042,4.086423,0.1193133,0.66280516,75.8052,02/22.0/2022,2000,g 15.5,6.0
# From MPEC 2021-F20
59P/Kearns-Kwee,e,9.3417,312.8224,127.5107,4.485472,0.1037509,0.47547358,130.1390,02/22.0/2022,2000,g  7.0,6.0
# From MPEC 2021-F20
60P/Tsuchinshan,e,3.5838,267.4962,216.9855,3.524709,0.1489427,0.53399955,174.5197,02/22.0/2022,2000,g 11.5,6.0
# From MPEC 2015-Q71
61P/Shajn-Schaldach,e,5.9994,162.9690,221.7501,3.690013,0.1390472,0.42411247,326.0657,02/22.0/2022,2000,g  6.0,10.0
# From MPC109147
62P/Tsuchinshan,e,4.7393,68.9342,47.3035,3.361930,0.1598899,0.62658622,252.7950,02/22.0/2022,2000,g  8.0,10.0
# From MPC 84320
63P/Wild,e,19.7295,358.0190,169.0550,5.608306,0.0742090,0.64901520,241.2096,02/22.0/2022,2000,g 10.5,6.0
# From MPEC 2021-F20
64P/Swift-Gehrels,e,8.9492,299.9692,97.0887,4.453130,0.1048832,0.68828324,126.4218,02/22.0/2022,2000,g 13.4,4.0
# From MPEC 2022-CN4
65P/Gunn,e,9.1773,62.0048,213.9030,3.887275,0.1285986,0.24898811,204.3187,02/22.0/2022,2000,g  5.0,6.0
# From MPEC 2021-F20
66P/duToit,e,18.6431,21.8016,257.4373,6.068585,0.0659285,0.78640217,90.6667,02/22.0/2022,2000,g 15.0,4.0
# From MPEC 2022-CN4
67P/Churyumov-Gerasimenko,e,3.8716,36.3326,22.1394,3.456031,0.1534043,0.64970057,17.1710,02/22.0/2022,2000,g 11.0,4.0
# From MPC 75716
68P/Klemola,e,11.1110,175.0505,153.1898,4.956101,0.0893293,0.63755752,74.6655,02/22.0/2022,2000,g 10.0,4.0
# From MPC114607
69P/Taylor,e,22.0373,104.8169,343.4111,3.886090,0.1286574,0.41335289,137.9031,02/22.0/2022,2000,g  9.5,12.0
# From MPEC 2022-CN4
70P/Kojima,e,6.5979,119.2676,1.8256,3.678274,0.1397133,0.45382284,15.4931,02/22.0/2022,2000,g 11.0,6.0
# From MPEC 2022-CN4
71P/Clark,e,9.4375,59.4011,209.0579,3.139438,0.1771847,0.49395505,300.6828,02/22.0/2022,2000,g  9.8,6.0
# From MPC 89011
72P/Denning-Fujikawa,e,10.9465,26.6966,346.7065,4.309489,0.1101705,0.81858594,307.2382,02/22.0/2022,2000,g 17.5,10.0
# From MPC106348
73P/Schwassmann-Wachmann,e,11.2275,69.6143,199.4803,3.092614,0.1812239,0.68539606,326.5283,02/22.0/2022,2000,g 11.5,6.0
# From MPC106348
73P-T/Schwassmann-Wachmann,e,11.2296,69.6168,199.4617,3.094184,0.1810860,0.68559839,326.2821,02/22.0/2022,2000,g 11.5,6.0
# From MPEC 2021-UA9
74P/Smirnova-Chernykh,e,5.9975,62.7718,124.7456,4.443094,0.1052388,0.12711046,143.2278,02/22.0/2022,2000,g  5.0,6.0
# From MPEC 2021-F20
76P/West-Kohoutek-Ikemura,e,30.4672,84.1089,359.9474,3.471665,0.1523692,0.53831610,129.5005,02/22.0/2022,2000,g 15.5,4.0
# From MPEC 2022-CN4
77P/Longmore,e,24.3182,14.7722,196.7865,3.623086,0.1429177,0.35190091,302.0791,02/22.0/2022,2000,g  7.0,8.0
# From MPEC 2021-O56
78P/Gehrels,e,6.2539,210.5151,192.6334,3.738087,0.1363735,0.46243607,143.9768,02/22.0/2022,2000,g  5.5,8.0
# From MPC 94675
79P/du Toit-Hartley,e,3.1480,280.5318,281.7795,2.943198,0.1951978,0.61888968,245.7047,02/22.0/2022,2000,g 16.0,4.0
# From MPEC 2014-P41
80P/Peters-Hartley,e,29.9234,259.8054,339.2455,4.024620,0.1220722,0.59867651,324.6160,02/22.0/2022,2000,g  9.0,4.0
# From MPEC 2022-CN4
81P/Wild,e,3.2366,136.0991,41.6520,3.452855,0.1536161,0.53711477,314.4277,02/22.0/2022,2000,g  7.0,6.0
# From MPC133426
82P/Gehrels,e,1.1290,239.3119,226.5190,4.134308,0.1172465,0.12178336,157.0135,02/22.0/2022,2000,g 15.0,4.0
# From MPEC 2020-FB5
84P/Giclas,e,7.5509,108.1641,281.5895,3.549582,0.1473799,0.51588419,92.5569,02/22.0/2022,2000,g  9.5,8.0
# From MPC109147
86P/Wild,e,15.4753,72.3558,179.4066,3.601048,0.1442317,0.37222007,2.0763,02/22.0/2022,2000,g 11.0,6.0
# From MPEC 2020-SI8
87P/Bus,e,2.6593,181.2023,26.1931,3.456778,0.1533546,0.39379744,99.5727,02/22.0/2022,2000,g  7.2,10.0
# From MPEC 2022-C56
88P/Howell,e,4.3830,56.6785,235.9157,3.105403,0.1801056,0.56406464,92.4833,02/22.0/2022,2000,g 11.0,6.0
# From MPC100283
89P/Russell,e,12.0699,41.3606,250.3780,3.753918,0.1355117,0.40839031,256.5603,02/22.0/2022,2000,g 11.5,6.0
# From MPC107051
90P/Gehrels,e,9.6499,13.2047,29.0538,6.051754,0.0662037,0.51055412,113.0617,02/22.0/2022,2000,g  8.5,6.0
# From MPEC 2021-S45
91P/Russell,e,14.0764,247.6010,355.2292,3.901553,0.1278933,0.33243195,59.9246,02/22.0/2022,2000,g  7.5,6.0
# From MPEC 2014-J58
92P/Sanguin,e,19.5045,181.3632,163.7786,5.343705,0.0797885,0.66103645,203.0693,02/22.0/2022,2000,g 12.0,6.0
# From NK 2707
93P/Lovas,e,12.2035,339.6470,74.8090,4.381519,0.1074650,0.61304046,195.4151,02/22.0/2022,2000,g  9.0,4.0
# From MPEC 2021-Y10
94P/Russell,e,6.1881,70.8580,92.4463,3.507828,0.1500191,0.36511602,292.0088,02/22.0/2022,2000,g  9.0,6.0
# From MPC 75717
95P/Chiron,e,6.9244,209.2903,339.6095,13.70753,0.0194207,0.37659398,185.4449,02/22.0/2022,2000,g  6.5,2.0
# From MPEC 2017-T14
96P/Machholz,e,57.5175,93.9638,14.7491,3.029223,0.1869421,0.96157551,295.8578,02/22.0/2022,2000,g  9.0,4.0
# From MPEC 2022-C56
97P/Metcalf-Brewington,e,17.9521,184.0782,229.9653,4.759287,0.0949273,0.45995906,0.6139,02/22.0/2022,2000,g  5.5,6.0
# From MPEC 2021-W31
98P/Takamizawa,e,10.5601,114.6948,157.8450,3.796220,0.1332530,0.56227277,55.0622,02/22.0/2022,2000,g  9.0,8.0
# From MPEC 2022-CN4
99P/Kowal,e,4.3395,28.1020,174.9385,6.106491,0.0653155,0.22932733,356.7540,02/22.0/2022,2000,g  4.5,6.0
# From MPEC 2022-CN4
100P/Hartley,e,25.5647,37.6892,181.9767,3.432704,0.1549707,0.41224159,333.6594,02/22.0/2022,2000,g  9.0,8.0
# From MPEC 2022-CN4
101P/Chernykh,e,5.0521,116.2222,277.7208,5.805674,0.0704572,0.59618593,54.3379,02/22.0/2022,2000,g 10.0,4.8
# From MPEC 2022-C56
102P/Shoemaker,e,25.8845,339.3656,20.5845,3.814261,0.1323087,0.45716982,52.3247,02/22.0/2022,2000,g  6.5,8.0
# From MPEC 2018-HA5
103P/Hartley,e,13.6067,219.7401,181.2851,3.475615,0.1521096,0.69351956,269.0947,02/22.0/2022,2000,g  8.5,8.0
# From MPEC 2022-CN4
104P/Kowal,e,5.7005,207.2161,227.2558,3.205007,0.1717753,0.66520316,7.1072,02/22.0/2022,2000,g 16.0,4.0
# From MPC109147
105P/Singer Brewster,e,9.1691,192.4033,46.4762,3.468233,0.1525955,0.40912449,197.3186,02/22.0/2022,2000,g 11.5,6.0
# From MPEC 2022-CN4
106P/Schuster,e,19.5359,48.8834,353.6813,3.763481,0.1349955,0.59379917,25.2727,02/22.0/2022,2000,g 14.0,4.8
# From MPEC 2015-M77
107P/Wilson-Harrington,e,2.7992,266.7792,95.4383,2.624769,0.2317755,0.63170341,317.4302,02/22.0/2022,2000,g  9.0,4.0
# From MPEC 2022-CN4
108P/Ciffreo,e,11.4362,50.2893,354.4318,3.738701,0.1363399,0.55591115,22.4809,02/22.0/2022,2000,g  8.0,12.0
# From  105, 420
109P/Swift-Tuttle,e,113.9388,139.0769,152.9656,26.16627,0.0073636,0.96270420,78.5614,02/22.0/2022,2000,g  4.0,6.0
# From MPEC 2022-CN4
110P/Hartley,e,11.7060,287.5350,167.4485,3.602962,0.1441168,0.31841383,18.2572,02/22.0/2022,2000,g  1.0,12.0
# From MPC 75718
111P/Helin-Roman-Crockett,e,4.2263,89.7637,0.9956,4.149057,0.1166218,0.10640067,29.3108,02/22.0/2022,2000,g  5.0,8.0
# From MPEC 2021-S45
112P/Urata-Niijima,e,24.2038,31.8320,21.4723,3.525159,0.1489142,0.59013622,110.9193,02/22.0/2022,2000,g 14.0,6.0
# From MPEC 2022-CN4
113P/Spitaler,e,5.2901,306.6806,115.5014,3.691492,0.1389637,0.41982428,346.1868,02/22.0/2022,2000,g 13.5,4.0
# From MPEC 2021-S45
114P/Wiseman-Skiff,e,18.2776,271.0390,172.7535,3.544224,0.1477143,0.55495091,113.7259,02/22.0/2022,2000,g 11.5,6.0
# From MPEC 2021-UA9
115P/Maury,e,11.6774,176.0092,120.9848,4.271778,0.1116326,0.51838701,63.9070,02/22.0/2022,2000,g 10.5,6.0
# From MPEC 2022-CN4
116P/Wild,e,3.6034,20.9805,173.3039,3.490696,0.1511249,0.37061122,338.0931,02/22.0/2022,2000,g  2.5,10.0
# From MPEC 2021-W31
117P/Helin-Roman-Alu,e,8.7038,58.8411,222.9228,4.082987,0.1194640,0.25552510,343.7903,02/22.0/2022,2000,g  2.5,8.0
# From MPEC 2021-TD0
118P/Shoemaker-Levy,e,10.0955,142.0960,314.7722,3.349471,0.1607828,0.45378408,315.7284,02/22.0/2022,2000,g 12.0,4.0
# From MPEC 2022-CN4
119P/Parker-Hartley,e,7.3932,104.5788,321.9877,3.806863,0.1326946,0.38845961,337.3340,02/22.0/2022,2000,g  3.5,8.0
# From MPEC 2022-CN4
